GSAT0101 (PRN E11)      
1 37846U 11060A   22172.35778259 -.00000097  00000+0  00000+0 0  9991
2 37846  56.9981  21.2286 0003835  44.7880 315.2868  1.70475087 66283
GSAT0102 (PRN E12)      
1 37847U 11060B   22171.40563823 -.00000096  00000+0  00000+0 0  9995
2 37847  56.9983  21.2543 0003390  10.7991 171.5861  1.70475371 66275
GSAT0103 (PRN E19)      
1 38857U 12055A   22172.39727022  .00000046  00000+0  00000+0 0  9998
2 38857  55.1406 141.5905 0005183 271.3661  88.5386  1.70473684 60174
GSAT0104 (PRN E20)      
1 38858U 12055B   22172.95397116  .00000045  00000+0  00000+0 0  9997
2 38858  55.1407 141.5767 0002731 274.2184  85.7144  1.70473974 60184
GSAT0201 (PRN E18)      
1 40128U 14050A   22172.52145033 -.00000117  00000+0  00000+0 0  9990
2 40128  50.2819 332.1197 1627559 124.1923 252.3473  1.85518869 51299
GSAT0202 (PRN E14)      
1 40129U 14050B   22173.32142781 -.00000122  00000+0  00000+0 0  9993
2 40129  50.3063 331.1487 1624596 125.0285 251.3399  1.85519523 53478
GSAT0203 (PRN E26)      
1 40544U 15017A   22173.31159649 -.00000097  00000+0  00000+0 0  9999
2 40544  56.7939  21.2353 0000845 249.7335 110.3022  1.70475863 44383
GSAT0204 (PRN E22)      
1 40545U 15017B   22172.97774536 -.00000097  00000+0  00000+0 0  9999
2 40545  56.7994  21.2569 0001074 185.8970 174.1460  1.70475611  7423
GSAT0205 (PRN E24)      
1 40889U 15045A   22171.57167153 -.00000035  00000+0  00000+0 0  9999
2 40889  55.6202 261.8784 0003441  12.8872 347.1669  1.70473933 42163
GSAT0206 (PRN E30)      
1 40890U 15045B   22171.79244740 -.00000036  00000+0  00000+0 0  9994
2 40890  55.6191 261.8680 0001815 349.2985  10.7423  1.70473923 42195
GSAT0209 (PRN E09)      
1 41174U 15079A   22173.13987859  .00000043  00000+0  00000+0 0  9999
2 41174  55.1574 141.2736 0005336 306.4303  53.4841  1.70474266 39954
GSAT0208 (PRN E08)      
1 41175U 15079B   22173.35933572  .00000042  00000+0  00000+0 0  9996
2 41175  55.1554 141.2662 0004542 306.4775  53.4440  1.70474271 40371
GSAT0211 (PRN E02)      
1 41549U 16030A   22170.54601609 -.00000030  00000+0  00000+0 0  9998
2 41549  55.7659 261.8357 0003067 314.9724  45.0518  1.70475433 37805
GSAT0210 (PRN E01)      
1 41550U 16030B   22171.42521938 -.00000034  00000+0  00000+0 0  9998
2 41550  55.7647 261.8129 0002998 273.5008  86.5109  1.70475466 37811
GSAT0207 (PRN E07)      
1 41859U 16069A   22172.25980777  .00000046  00000+0  00000+0 0  9996
2 41859  54.8171 141.4780 0005539 295.0721  64.8341  1.70472904 34566
GSAT0212 (PRN E03)      
1 41860U 16069B   22172.69979938  .00000045  00000+0  00000+0 0  9992
2 41860  54.8149 141.4636 0004119 313.4490  46.4806  1.70472884 34822
GSAT0213 (PRN E04)      
1 41861U 16069C   22173.06521516  .00000043  00000+0  00000+0 0  9998
2 41861  54.8170 141.4586 0005202 277.9911  81.9138  1.70473034 34692
GSAT0214 (PRN E05)      
1 41862U 16069D   22170.86594624  .00000046  00000+0  00000+0 0  9997
2 41862  54.8150 141.5139 0004357 281.6309  78.2808  1.70472897 34788
GSAT0215 (PRN E21)      
1 43055U 17079A   22173.11640262 -.00000036  00000+0  00000+0 0  9996
2 43055  55.7392 261.5973 0002588 264.2340  95.7792  1.70474669 28167
GSAT0216 (PRN E25)      
1 43056U 17079B   22172.23545997 -.00000036  00000+0  00000+0 0  9998
2 43056  55.7404 261.6213 0004204 271.6943  88.3014  1.70474749 28162
GSAT0217 (PRN E27)      
1 43057U 17079C   22172.45569741 -.00000036  00000+0  00000+0 0  9996
2 43057  55.7384 261.6150 0003636 285.0253  74.9779  1.70474744 28154
GSAT0218 (PRN E31)      
1 43058U 17079D   22173.26230752 -.00000035  00000+0  00000+0 0  9993
2 43058  55.7382 261.5902 0004728 268.0280  91.9605  1.70474692 28194
GSAT0221 (PRN E15)      
1 43564U 18060A   22169.64145048 -.00000092  00000+0  00000+0 0  9999
2 43564  57.1746  21.1516 0001815 307.5312  52.4982  1.70475536 24280
GSAT0222 (PRN E33)      
1 43565U 18060B   22172.79424032 -.00000096  00000+0  00000+0 0  9997
2 43565  57.1779  21.0666 0001770 328.6664  31.3673  1.70475641 24387
GSAT0219 (PRN E36)      
1 43566U 18060C   22173.01479263 -.00000096  00000+0  00000+0 0  9990
2 43566  57.1785  21.0627 0001569 338.3529  21.6850  1.70475666 24360
GSAT0220 (PRN E13)      
1 43567U 18060D   22172.64832492 -.00000096  00000+0  00000+0 0  9996
2 43567  57.1786  21.0721 0001415 326.4416  33.5935  1.70475528 24341
GSAT0223                
1 49809U 21116A   22172.20854542 -.00000096  00000+0  00000+0 0  9999
2 49809  57.1708  20.9823 0002091 125.4897  54.6427  1.70475622  3344
GSAT0224                
1 49810U 21116B   22172.62215755 -.00000096  00000+0  00000+0 0  9994
2 49810  57.1710  20.9691 0002168 105.6150  80.8415  1.70475648  3378
